ORBCOMM FM103 [+]       
1 40091U 14040F   23259.23819118  .00000976  00000+0  25788-3 0  9991
2 40091  47.0057 154.2342 0002163 239.1229 120.9443 14.55879489470789
ORBCOMM FM119 [-]       
1 41180U 15081B   23259.37795621  .00000909  00000+0  24274-3 0  9999
2 41180  47.0024 332.1389 0001592 322.7299  37.3475 14.55876037412421
ORBCOMM FM105 [-]       
1 41181U 15081C   23259.17602137  .00000359  00000+0  14978-3 0  9996
2 41181  47.0012 278.5960 0002444 313.0155  47.0520 14.44004283408213
ORBCOMM FM110 [+]       
1 41182U 15081D   23259.18232106  .00001036  00000+0  27151-3 0  9993
2 41182  47.0022  63.2936 0001702 141.2665 218.8342 14.55890974411014
ORBCOMM FM118 [+]       
1 41183U 15081E   23259.50293030  .00000954  00000+0  25292-3 0  9995
2 41183  47.0041  62.0453 0001910 137.4886 222.6147 14.55898671411164
ORBCOMM FM113 [+]       
1 41185U 15081G   23259.33248470  .00001258  00000+0  32138-3 0  9991
2 41185  47.0027 331.8342 0001399 306.7711  53.3045 14.55895656412340
